[{"OBJECT_NAME":"COSMOS 2455","OBJECT_ID":"2009-063A","EPOCH":"2026-03-09T13:30:30.596832","MEAN_MOTION":13.97040814,"ECCENTRICITY":0.000641,"INCLINATION":67.1475,"RA_OF_ASC_NODE":135.1864,"ARG_OF_PERICENTER":244.9363,"MEAN_ANOMALY":115.1057,"EPHEMERIS_TYPE":0,"CLASSIFICATION_TYPE":"U","NORAD_CAT_ID":36095,"ELEMENT_SET_NO":999,"REV_AT_EPOCH":83121,"BSTAR":3.8777e-5,"MEAN_MOTION_DOT":-2.1e-7,"MEAN_MOTION_DDOT":0},{"OBJECT_NAME":"SL-3 DEB","OBJECT_ID":"1974-083C","EPOCH":"2026-03-09T23:22:05.057760","MEAN_MOTION":14.09670311,"ECCENTRICITY":0.00570156,"INCLINATION":81.2137,"RA_OF_ASC_NODE":284.1144,"ARG_OF_PERICENTER":32.9645,"MEAN_ANOMALY":34.6577,"EPHEMERIS_TYPE":0,"CLASSIFICATION_TYPE":"U","NORAD_CAT_ID":15521,"ELEMENT_SET_NO":999,"REV_AT_EPOCH":64435,"BSTAR":2.4265186e-5,"MEAN_MOTION_DOT":5.6e-7,"MEAN_MOTION_DDOT":0}]
